CAPELLA-11 (ACADIA-1)   
1 57693U 23126A   26186.15790778  .00008242  00000+0  99598-3 0  9999
2 57693  53.0050 106.9012 0001699 101.5847 258.5323 14.84459748154793
CAPELLA-14 (ACADIA-4)   
1 59444U 24066C   26185.97442412  .00023167  00000+0  14299-2 0  9994
2 59444  45.6021 161.5142 0001358 153.2791 206.8165 15.09606328115174
CAPELLA-13 (ACADIA-3)   
1 60419U 24142A   26185.70084090  .00009358  00000+0  10425-2 0  9991
2 60419  53.0066 341.1190 0001299  93.8207 266.2922 14.87674917103019
CAPELLA-15 (ACADIA-5)   
1 60544U 24149CE  26185.68785030  .00007133  00000+0  70141-3 0  9997
2 60544  97.6734 258.1548 0003724  23.2249 336.9138 14.92412141102463
CAPELLA-17 (ACADIA-7)   
1 64583U 25135BH  26185.78150514  .00013515  00000+0  13523-2 0  9995
2 64583  97.7697 299.1431 0003934 295.5927  64.4885 14.91536186 56471
CAPELLA-16 (ACADIA-6)   
1 65318U 25188D   26186.17486621  .00011943  00000+0  11248-2 0  9990
2 65318  97.7378 261.0573 0004973 159.9859 200.1557 14.93974798 46606
CAPELLA-19 (ACADIA-9)   
1 67384U 26004X   26184.95833634  .00008941  00000+0  10118-2 0  9996
2 67384  97.8001 183.0301 0001448  90.2530 269.8852 14.86661078 25764
CAPELLA-18 (ACADIA-8)   
1 67385U 26004Y   26185.70875389  .00001874  00000+0  21713-3 0  9996
2 67385  97.8005 183.9193 0001852  91.2917 268.8511 14.86653812 25887
CAPELLA-20 (ACADIA-10)  
1 68485U 26067BX  26185.60014794  .00012634  00000+0  12578-2 0  9995
2 68485  97.7583 143.6157 0000570 166.6833 193.4401 14.91757502 14327
